STARLINK-2472           
1 48130U 21027AQ  26068.59623917  .00000164  00000+0  17668-4 0  9994
2 48130  53.1621 168.6315 0001727  59.3925 300.7246 15.30197129272467
COSMOS 2550             
1 48865U 21056A   26067.47400841 -.00000192  00000+0 -13338-7 0  9992
2 48865  67.1451  44.6088 0008369 269.6014  90.4182 15.33829151263273
